OBJECT_NAME,OBJECT_ID,EPOCH,MEAN_MOTION,ECCENTRICITY,INCLINATION,RA_OF_ASC_NODE,ARG_OF_PERICENTER,MEAN_ANOMALY,EPHEMERIS_TYPE,CLASSIFICATION_TYPE,NORAD_CAT_ID,ELEMENT_SET_NO,REV_AT_EPOCH,BSTAR,MEAN_MOTION_DOT,MEAN_MOTION_DDOT
CUTE-1 (CO-55),2003-031E,2026-05-09T23:05:54.068640,14.24311697,.00084299,98.6748,139.0012,300.4617,59.5728,0,U,27844,999,18623,.11296666E-3,.217E-5,0
CUBESAT XI-IV (CO-57),2003-031J,2026-05-09T10:33:16.673184,14.23599872,.00086521,98.6780,138.2288,322.9503,37.1078,0,U,27848,999,18586,.10632319E-3,.198E-5,0
CUBESAT XI-V,2005-043F,2026-05-09T22:38:43.482048,14.72530160,.00133197,98.2944,284.7743,331.4479,28.5997,0,U,28895,999,9612,.15829758E-3,.954E-5,0
SEEDS II (CO-66),2008-021J,2026-05-09T22:14:47.415552,15.31449664,.00050926,97.7531,126.0413,90.4223,269.7600,0,U,32791,999,98143,.42248932E-3,.12761E-3,0
SWISSCUBE,2009-051B,2026-05-09T23:46:38.382528,14.62406542,.00064137,98.4060,37.2119,343.7637,16.3357,0,U,35932,999,88357,.14912393E-3,.705E-5,0
BEESAT-1,2009-051C,2026-05-09T16:57:31.912704,14.61656665,.00052855,98.3987,36.6382,2.2534,357.8689,0,U,35933,999,88356,.13314044E-3,.613E-5,0
ITUPSAT1,2009-051E,2026-05-09T15:56:00.674016,14.60381705,.0007696,98.4072,35.8272,8.7174,351.4158,0,U,35935,999,88311,.12595243E-3,.561E-5,0
TISAT 1,2010-035E,2026-05-09T19:34:02.184384,15.30261123,.00038054,98.0691,73.0133,59.1420,301.0192,0,U,36799,999,86183,.46644535E-3,.13582E-3,0
AEROCUBE 4.5A,2012-048K,2026-05-09T12:47:47.383584,15.77033795,.0019764,64.6299,166.0390,216.7760,143.2038,0,U,38767,999,36653,.7133307E-3,.119503E-2,0
STRAND-1,2013-009E,2026-05-09T23:20:32.763552,14.37140393,.00083922,98.3917,311.1494,353.8176,6.2906,0,U,39090,999,69157,.81203562E-4,.199E-5,0
BRITE-AUSTRIA,2013-009F,2026-05-09T23:15:28.710720,14.36526621,.0010131,98.3988,310.3526,1.5030,358.6185,0,U,39091,999,69156,.5531154E-4,.12E-5,0
NEE-01 PEGASO,2013-018B,2026-05-09T22:39:46.962720,14.93473057,.00112359,98.1173,272.8478,291.9314,68.0710,0,U,39151,999,70499,.22639638E-3,.2322E-4,0
POPACS 2,2013-055E,2026-05-09T13:58:03.172224,14.90341849,.04197223,80.9921,188.3558,317.9707,38.9991,0,U,39269,999,65746,.21153604E-3,.12332E-3,0
POPACS 3,2013-055F,2026-05-09T19:57:36.383904,14.55178161,.05550051,81.0007,270.7435,186.6350,172.7290,0,U,39270,999,63297,.28299555E-3,.11812E-3,0
ZACUBE-1 (TSHEPISOSAT),2013-066B,2026-05-09T21:02:29.053824,15.00890447,.00423212,97.8123,92.0065,22.1026,338.2010,0,U,39417,999,67498,.2744932E-3,.3496E-4,0
WNISAT-1,2013-066H,2026-05-09T22:01:27.014592,14.58015519,.01629242,97.7156,281.8009,352.9618,6.9295,0,U,39423,999,66115,.72540654E-4,.349E-5,0
TRITON-1,2013-066M,2026-05-10T00:05:01.726080,14.81538514,.00904135,97.8261,40.6807,359.8844,0.2333,0,U,39427,999,66843,.32580279E-3,.2686E-4,0
GOMX-1,2013-066Q,2026-05-09T23:35:32.406144,14.69310306,.01282359,97.6512,332.8542,199.6143,160.0107,0,U,39430,999,66430,.21420263E-3,.1382E-4,0
CUBEBUG-2 (LO-74),2013-066AA,2026-05-09T19:26:08.689920,14.93478578,.00586695,97.8887,78.6418,153.0815,207.3469,0,U,39440,999,67126,.26829223E-3,.2857E-4,0
NEE-02 KRYSAOR,2013-066AB,2026-05-09T18:34:39.285120,14.86476736,.00657728,97.8877,69.2722,194.4308,165.5032,0,U,39441,999,67049,.13074042E-3,.1143E-4,0
FUNCUBE-1 (AO-73),2013-066AE,2026-05-09T20:49:03.842112,15.08989512,.00357983,97.8257,100.5338,336.9141,23.0476,0,U,39444,999,67388,.40814474E-3,.6479E-4,0
UWE-3,2013-066AG,2026-05-09T20:16:42.421152,14.96707857,.00511283,97.8683,85.6781,87.4041,273.3032,0,U,39446,999,67184,.20768944E-3,.2373E-4,0
BRITE-CA1 (TORONTO),2014-033L,2026-05-09T20:27:33.151392,14.72624113,.00795033,97.9684,259.5007,40.4900,320.2186,0,U,40020,999,63657,.91883072E-4,.561E-5,0
DUCHIFAT-1,2014-033M,2026-05-09T21:03:43.585056,15.57990132,.00056285,98.0512,183.8824,195.0868,165.0219,0,U,40021,999,64977,.73440287E-3,.55203E-3,0
NANOSATC-BR1,2014-033Q,2026-05-09T15:20:15.711936,15.30245707,.00021979,98.0758,158.6464,343.1492,16.9673,0,U,40024,999,64808,.40739139E-3,.11841E-3,0
QB50P1,2014-033R,2026-05-09T23:34:41.281536,15.17667201,.00086558,98.0987,138.4674,9.1210,351.0178,0,U,40025,999,64723,.30722772E-3,.6117E-4,0
QB50P2,2014-033Y,2026-05-09T22:07:15.729312,15.14670681,.00060476,98.0760,124.4378,315.6641,44.4105,0,U,40032,999,64687,.29690609E-3,.5421E-4,0
PERSEUS-M2,2014-033AD,2026-05-09T22:10:33.290688,14.95389066,.00130802,97.9938,79.6957,68.5029,291.7585,0,U,40037,999,64506,.11443108E-3,.1204E-4,0
