CUTE-1 (CO-55)          
1 27844U 03031E   26129.96243135  .00000217  00000+0  11297-3 0  9997
2 27844  98.6748 139.0012 0008429 300.4617  59.5728 14.24311697186233
CUBESAT XI-IV (CO-57)   
1 27848U 03031J   26129.43977631  .00000198  00000+0  10632-3 0  9998
2 27848  98.6780 138.2288 0008652 322.9503  37.1078 14.23599872185860
CUBESAT XI-V            
1 28895U 05043F   26129.94355882  .00000954  00000+0  15830-3 0  9995
2 28895  98.2944 284.7743 0013319 331.4479  28.5997 14.72530160 96120
SEEDS II (CO-66)        
1 32791U 08021J   26129.92693767  .00012761  00000+0  42249-3 0  9992
2 32791  97.7531 126.0413 0005093  90.4223 269.7600 15.31449664981438
SWISSCUBE               
1 35932U 09051B   26129.99072202  .00000705  00000+0  14912-3 0  9999
2 35932  98.4060  37.2119 0006413 343.7637  16.3357 14.62406542883571
BEESAT-1                
1 35933U 09051C   26129.70661936  .00000613  00000+0  13314-3 0  9990
2 35933  98.3987  36.6382 0005285   2.2534 357.8689 14.61656665883565
ITUPSAT1                
1 35935U 09051E   26129.66389669  .00000561  00000+0  12595-3 0  9999
2 35935  98.4072  35.8272 0007696   8.7174 351.4158 14.60381705883112
TISAT 1                 
1 36799U 10035E   26129.81530306  .00013582  00000+0  46645-3 0  9995
2 36799  98.0691  73.0133 0003805  59.1420 301.0192 15.30261123861839
AEROCUBE 4.5A           
1 38767U 12048K   26129.53318731  .00119503  00000+0  71333-3 0  9995
2 38767  64.6299 166.0390 0019764 216.7760 143.2038 15.77033795366531
STRAND-1                
1 39090U 13009E   26129.97260143  .00000199  00000+0  81204-4 0  9993
2 39090  98.3917 311.1494 0008392 353.8176   6.2906 14.37140393691574
BRITE-AUSTRIA           
1 39091U 13009F   26129.96908230  .00000120  00000+0  55312-4 0  9994
2 39091  98.3988 310.3526 0010131   1.5030 358.6185 14.36526621691563
NEE-01 PEGASO           
1 39151U 13018B   26129.94429355  .00002322  00000+0  22640-3 0  9998
2 39151  98.1173 272.8478 0011235 291.9314  68.0710 14.93473057704993
POPACS 2                
1 39269U 13055E   26129.58198116  .00012332  00000+0  21154-3 0  9998
2 39269  80.9921 188.3558 0419722 317.9707  38.9991 14.90341849657467
POPACS 3                
1 39270U 13055F   26129.83167111  .00011812  00000+0  28300-3 0  9991
2 39270  81.0007 270.7435 0555005 186.6350 172.7290 14.55178161632970
ZACUBE-1 (TSHEPISOSAT)  
1 39417U 13066B   26129.87672516  .00003496  00000+0  27449-3 0  9992
2 39417  97.8123  92.0065 0042321  22.1026 338.2010 15.00890447674982
WNISAT-1                
1 39423U 13066H   26129.91767378  .00000349  00000+0  72541-4 0  9993
2 39423  97.7156 281.8009 0162924 352.9618   6.9295 14.58015519661153
TRITON-1                
1 39427U 13066M   26130.00349220  .00002686  00000+0  32580-3 0  9995
2 39427  97.8261  40.6807 0090413 359.8844   0.2333 14.81538514668431
GOMX-1                  
1 39430U 13066Q   26129.98301396  .00001382  00000+0  21420-3 0  9999
2 39430  97.6512 332.8542 0128235 199.6143 160.0107 14.69310306664309
CUBEBUG-2 (LO-74)       
1 39440U 13066AA  26129.80982280  .00002857  00000+0  26829-3 0  9994
2 39440  97.8887  78.6418 0058669 153.0815 207.3469 14.93478578671269
NEE-02 KRYSAOR          
1 39441U 13066AB  26129.77406580  .00001143  00000+0  13074-3 0  9990
2 39441  97.8877  69.2722 0065772 194.4308 165.5032 14.86476736670493
FUNCUBE-1 (AO-73)       
1 39444U 13066AE  26129.86740558  .00006479  00000+0  40814-3 0  9998
2 39444  97.8257 100.5338 0035798 336.9141  23.0476 15.08989512673885
UWE-3                   
1 39446U 13066AG  26129.84493543  .00002373  00000+0  20769-3 0  9993
2 39446  97.8683  85.6781 0051128  87.4041 273.3032 14.96707857671845
BRITE-CA1 (TORONTO)     
1 40020U 14033L   26129.85246703  .00000561  00000+0  91883-4 0  9996
2 40020  97.9684 259.5007 0079503  40.4900 320.2186 14.72624113636570
DUCHIFAT-1              
1 40021U 14033M   26129.87758779  .00055203  00000+0  73440-3 0  9991
2 40021  98.0512 183.8824 0005628 195.0868 165.0219 15.57990132649775
NANOSATC-BR1            
1 40024U 14033Q   26129.63907074  .00011841  00000+0  40739-3 0  9997
2 40024  98.0758 158.6464 0002197 343.1492  16.9673 15.30245707648080
QB50P1                  
1 40025U 14033R   26129.98242224  .00006117  00000+0  30723-3 0  9997
2 40025  98.0987 138.4674 0008655   9.1210 351.0178 15.17667201647237
QB50P2                  
1 40032U 14033Y   26129.92170983  .00005421  00000+0  29691-3 0  9990
2 40032  98.0760 124.4378 0006047 315.6641  44.4105 15.14670681646871
PERSEUS-M2              
1 40037U 14033AD  26129.92399642  .00001204  00000+0  11443-3 0  9991
2 40037  97.9938  79.6957 0013080  68.5029 291.7585 14.95389066645065
